[{"OBJECT_NAME":"STARLINK-32856","OBJECT_ID":"2025-018P","EPOCH":"2026-03-09T22:02:38.518368","MEAN_MOTION":15.30211703,"ECCENTRICITY":0.00010493,"INCLINATION":53.1608,"RA_OF_ASC_NODE":308.5191,"ARG_OF_PERICENTER":77.5771,"MEAN_ANOMALY":282.5347,"EPHEMERIS_TYPE":0,"CLASSIFICATION_TYPE":"U","NORAD_CAT_ID":62819,"ELEMENT_SET_NO":999,"REV_AT_EPOCH":6321,"BSTAR":0.0012221242,"MEAN_MOTION_DOT":0.00036025,"MEAN_MOTION_DDOT":0},{"OBJECT_NAME":"OBJECT D","OBJECT_ID":"2021-102D","EPOCH":"2026-03-09T14:47:14.426880","MEAN_MOTION":15.2846442,"ECCENTRICITY":0.0009157,"INCLINATION":97.3342,"RA_OF_ASC_NODE":112.2633,"ARG_OF_PERICENTER":187.6206,"MEAN_ANOMALY":172.4897,"EPHEMERIS_TYPE":0,"CLASSIFICATION_TYPE":"U","NORAD_CAT_ID":49398,"ELEMENT_SET_NO":999,"REV_AT_EPOCH":23880,"BSTAR":0.00046011,"MEAN_MOTION_DOT":0.00012697,"MEAN_MOTION_DDOT":0}]
